start=new Date('2022-06-01T00:00:00.000Z').valueOf();
sats=[{"MEAN_MOTION_DOT":"-0.00000568","TIME_SYSTEM":"UTC","COUNTRY_CODE":"US","LAUNCH_DATE":"2020-04-22","TLE_LINE1":"1 45543U 20025N   22151.78659998 -.00000568  00000-0 -19203-4 0  9992","GP_ID":"205033526","CLASSIFICATION_TYPE":"U","OBJECT_ID":"2020-025N","EPHEMERIS_TYPE":"0","OBJECT_NAME":"STARLINK-1372","OBJECT_TYPE":"PAYLOAD","MEAN_ELEMENT_THEORY":"SGP4","DECAY_DATE":null,"MEAN_MOTION":"15.06387670","REV_AT_EPOCH":"11682","MEAN_ANOMALY":"309.1807","REF_FRAME":"TEME","INCLINATION":"53.0555","ELEMENT_SET_NO":"999","CENTER_NAME":"EARTH","MEAN_MOTION_DDOT":"0.0000000000000","SEMIMAJOR_AXIS":"6925.386","TLE_LINE2":"2 45543  53.0555 172.2726 0001898  50.9351 309.1807 15.06387670116821","ARG_OF_PERICENTER":"50.9351","APOAPSIS":"548.566","RA_OF_ASC_NODE":"172.2726","PERIAPSIS":"545.937","FILE":"3474208","BSTAR":"-0.00001920300000","ECCENTRICITY":"0.00018980","NORAD_CAT_ID":"45543","SITE":"AFETR","EPOCH":"2022-05-31T18:52:42.238272","RCS_SIZE":"LARGE","PERIOD":"95.593"},{"SEMIMAJOR_AXIS":"6925.384","MEAN_MOTION_DDOT":"0.0000000000000","TLE_LINE2":"2 45544  53.0541 175.4668 0001452  72.7769 287.3379 15.06388364117304","ARG_OF_PERICENTER":"72.7769","RA_OF_ASC_NODE":"175.4668","APOAPSIS":"548.255","REF_FRAME":"TEME","INCLINATION":"53.0541","ELEMENT_SET_NO":"999","CENTER_NAME":"EARTH","NORAD_CAT_ID":"45544","SITE":"AFETR","RCS_SIZE":"LARGE","PERIOD":"95.593","EPOCH":"2022-05-31T01:48:18.105120","PERIAPSIS":"546.244","FILE":"3474118","BSTAR":"-0.00011561000000","ECCENTRICITY":"0.00014520","TLE_LINE1":"1 45544U 20025P   22151.07520955 -.00002002  00000-0 -11561-3 0  9998","LAUNCH_DATE":"2020-04-22","GP_ID":"205026585","CLASSIFICATION_TYPE":"U","MEAN_MOTION_DOT":"-0.00002002","COUNTRY_CODE":"US","TIME_SYSTEM":"UTC","DECAY_DATE":null,"MEAN_ELEMENT_THEORY":"SGP4","MEAN_MOTION":"15.06388364","MEAN_ANOMALY":"287.3379","REV_AT_EPOCH":"11730","OBJECT_ID":"2020-025P","EPHEMERIS_TYPE":"0","OBJECT_NAME":"STARLINK-1373","OBJECT_TYPE":"PAYLOAD"},{"MEAN_MOTION_DDOT":"0.0000000000000","SEMIMAJOR_AXIS":"6925.375","TLE_LINE2":"2 45545  53.0532 172.3884 0001888  51.0425 309.0732 15.06391393116820","ARG_OF_PERICENTER":"51.0425","RA_OF_ASC_NODE":"172.3884","APOAPSIS":"548.547","REF_FRAME":"TEME","INCLINATION":"53.0532","ELEMENT_SET_NO":"999","CENTER_NAME":"EARTH","NORAD_CAT_ID":"45545","SITE":"AFETR","RCS_SIZE":"LARGE","EPOCH":"2022-05-31T18:10:14.324736","PERIOD":"95.593","PERIAPSIS":"545.932","FILE":"3474366","BSTAR":"0.00004685500000","ECCENTRICITY":"0.00018880","LAUNCH_DATE":"2020-04-22","TLE_LINE1":"1 45545U 20025Q   22151.75711024  .00000416  00000-0  46855-4 0  9993","GP_ID":"205036875","CLASSIFICATION_TYPE":"U","MEAN_MOTION_DOT":"0.00000416","TIME_SYSTEM":"UTC","COUNTRY_CODE":"US","DECAY_DATE":null,"MEAN_ELEMENT_THEORY":"SGP4","MEAN_MOTION":"15.06391393","REV_AT_EPOCH":"11682","MEAN_ANOMALY":"309.0732","OBJECT_ID":"2020-025Q","EPHEMERIS_TYPE":"0","OBJECT_TYPE":"PAYLOAD","OBJECT_NAME":"STARLINK-1374"},{"APOAPSIS":"548.380","RA_OF_ASC_NODE":"173.5417","ARG_OF_PERICENTER":"73.6481","TLE_LINE2":"2 45546  53.0563 173.5417 0001684  73.6481 286.4693 15.06399768116778","SEMIMAJOR_AXIS":"6925.349","MEAN_MOTION_DDOT":"0.0000000000000","CENTER_NAME":"EARTH","ELEMENT_SET_NO":"999","INCLINATION":"53.0563","REF_FRAME":"TEME","RCS_SIZE":"LARGE","EPOCH":"2022-05-31T12:03:58.027680","PERIOD":"95.592","SITE":"AFETR","NORAD_CAT_ID":"45546","ECCENTRICITY":"0.00016840","BSTAR":"0.00004048400000","FILE":"3473634","PERIAPSIS":"546.048","CLASSIFICATION_TYPE":"U","GP_ID":"204994886","LAUNCH_DATE":"2020-04-22","TLE_LINE1":"1 45546U 20025R   22151.50275495  .00000321  00000-0  40484-4 0  9991","COUNTRY_CODE":"US","TIME_SYSTEM":"UTC","MEAN_MOTION_DOT":"0.00000321","MEAN_ANOMALY":"286.4693","REV_AT_EPOCH":"11677","MEAN_MOTION":"15.06399768","MEAN_ELEMENT_THEORY":"SGP4","DECAY_DATE":null,"OBJECT_TYPE":"PAYLOAD","OBJECT_NAME":"STARLINK-1375","EPHEMERIS_TYPE":"0","OBJECT_ID":"2020-025R"},{"MEAN_MOTION":"15.06384250","MEAN_ELEMENT_THEORY":"SGP4","DECAY_DATE":null,"REV_AT_EPOCH":"11682","MEAN_ANOMALY":"298.9248","EPHEMERIS_TYPE":"0","OBJECT_ID":"2020-025S","OBJECT_TYPE":"PAYLOAD","OBJECT_NAME":"STARLINK-1377","LAUNCH_DATE":"2020-04-22","TLE_LINE1":"1 45547U 20025S   22151.76448409  .00000176  00000-0  30746-4 0  9995","CLASSIFICATION_TYPE":"U","GP_ID":"205033530","TIME_SYSTEM":"UTC","COUNTRY_CODE":"US","MEAN_MOTION_DOT":"0.00000176","SITE":"AFETR","NORAD_CAT_ID":"45547","EPOCH":"2022-05-31T18:20:51.425376","RCS_SIZE":"LARGE","PERIOD":"95.593","FILE":"3474204","PERIAPSIS":"546.161","ECCENTRICITY":"0.00015900","BSTAR":"0.00003074600000","SEMIMAJOR_AXIS":"6925.397","MEAN_MOTION_DDOT":"0.0000000000000","APOAPSIS":"548.363","RA_OF_ASC_NODE":"172.3651","ARG_OF_PERICENTER":"61.1900","TLE_LINE2":"2 45547  53.0559 172.3651 0001590  61.1900 298.9248 15.06384250116825","INCLINATION":"53.0559","REF_FRAME":"TEME","CENTER_NAME":"EARTH","ELEMENT_SET_NO":"999"},{"INCLINATION":"53.0545","REF_FRAME":"TEME","CENTER_NAME":"EARTH","ELEMENT_SET_NO":"999","SEMIMAJOR_AXIS":"6925.365","MEAN_MOTION_DDOT":"0.0000000000000","RA_OF_ASC_NODE":"173.7494","APOAPSIS":"548.331","TLE_LINE2":"2 45548  53.0545 173.7494 0001590  57.1155 302.9987 15.06394529116778","ARG_OF_PERICENTER":"57.1155","FILE":"3473594","PERIAPSIS":"546.129","ECCENTRICITY":"0.00015900","BSTAR":"-0.00001247400000","SITE":"AFETR","NORAD_CAT_ID":"45548","RCS_SIZE":"LARGE","EPOCH":"2022-05-31T11:00:17.327232","PERIOD":"95.592","COUNTRY_CODE":"US","TIME_SYSTEM":"UTC","MEAN_MOTION_DOT":"-0.00000467","LAUNCH_DATE":"2020-04-22","TLE_LINE1":"1 45548U 20025T   22151.45853388 -.00000467  00000-0 -12474-4 0  9991","CLASSIFICATION_TYPE":"U","GP_ID":"204994842","EPHEMERIS_TYPE":"0","OBJECT_ID":"2020-025T","OBJECT_NAME":"STARLINK-1378","OBJECT_TYPE":"PAYLOAD","MEAN_MOTION":"15.06394529","DECAY_DATE":null,"MEAN_ELEMENT_THEORY":"SGP4","REV_AT_EPOCH":"11677","MEAN_ANOMALY":"302.9987"},{"EPHEMERIS_TYPE":"0","OBJECT_ID":"2020-025V","OBJECT_NAME":"STARLINK-1390","OBJECT_TYPE":"PAYLOAD","MEAN_MOTION":"15.06391893","MEAN_ELEMENT_THEORY":"SGP4","DECAY_DATE":null,"MEAN_ANOMALY":"296.5034","REV_AT_EPOCH":"11729","COUNTRY_CODE":"US","TIME_SYSTEM":"UTC","MEAN_MOTION_DOT":"0.00000040","LAUNCH_DATE":"2020-04-22","TLE_LINE1":"1 45550U 20025V   22151.07793394  .00000040  00000-0  21587-4 0  9992","CLASSIFICATION_TYPE":"U","GP_ID":"205026336","FILE":"3474118","PERIAPSIS":"546.020","ECCENTRICITY":"0.00017600","BSTAR":"0.00002158700000","SITE":"AFETR","NORAD_CAT_ID":"45550","RCS_SIZE":"LARGE","PERIOD":"95.593","EPOCH":"2022-05-31T01:52:13.492416","INCLINATION":"53.0510","REF_FRAME":"TEME","CENTER_NAME":"EARTH","ELEMENT_SET_NO":"999","MEAN_MOTION_DDOT":"0.0000000000000","SEMIMAJOR_AXIS":"6925.373","APOAPSIS":"548.457","RA_OF_ASC_NODE":"175.4518","TLE_LINE2":"2 45550  53.0510 175.4518 0001760  63.6135 296.5034 15.06391893117298","ARG_OF_PERICENTER":"63.6135"},{"REV_AT_EPOCH":"11698","MEAN_ANOMALY":"305.2983","MEAN_ELEMENT_THEORY":"SGP4","DECAY_DATE":null,"MEAN_MOTION":"15.06395543","OBJECT_NAME":"STARLINK-1294","OBJECT_TYPE":"PAYLOAD","OBJECT_ID":"2020-025W","EPHEMERIS_TYPE":"0","GP_ID":"204982178","CLASSIFICATION_TYPE":"U","TLE_LINE1":"1 45551U 20025W   22151.14706605 -.00000624  00000-0 -23020-4 0  9994","LAUNCH_DATE":"2020-04-22","MEAN_MOTION_DOT":"-0.00000624","COUNTRY_CODE":"US","TIME_SYSTEM":"UTC","RCS_SIZE":"LARGE","EPOCH":"2022-05-31T03:31:46.506720","PERIOD":"95.592","NORAD_CAT_ID":"45551","SITE":"AFETR","BSTAR":"-0.00002302000000","ECCENTRICITY":"0.00017190","PERIAPSIS":"546.037","FILE":"3473066","ARG_OF_PERICENTER":"54.8167","TLE_LINE2":"2 45551  53.0541 155.1261 0001719  54.8167 305.2983 15.06395543116986","APOAPSIS":"548.418","RA_OF_ASC_NODE":"155.1261","SEMIMAJOR_AXIS":"6925.362","MEAN_MOTION_DDOT":"0.0000000000000","ELEMENT_SET_NO":"999","CENTER_NAME":"EARTH","REF_FRAME":"TEME","INCLINATION":"53.0541"},{"FILE":"3474228","PERIAPSIS":"374.172","ECCENTRICITY":"0.00104370","BSTAR":"0.00163230000000","SITE":"AFETR","NORAD_CAT_ID":"45552","EPOCH":"2022-05-31T20:33:58.499712","RCS_SIZE":"LARGE","PERIOD":"92.176","INCLINATION":"53.0443","REF_FRAME":"TEME","CENTER_NAME":"EARTH","ELEMENT_SET_NO":"999","SEMIMAJOR_AXIS":"6759.362","MEAN_MOTION_DDOT":"0.0000000000000","APOAPSIS":"388.281","RA_OF_ASC_NODE":"88.9900","ARG_OF_PERICENTER":"104.5647","TLE_LINE2":"2 45552  53.0443  88.9900 0010437 104.5647 255.6524 15.62227322117985","EPHEMERIS_TYPE":"0","OBJECT_ID":"2020-025X","OBJECT_NAME":"STARLINK-1322","OBJECT_TYPE":"PAYLOAD","MEAN_MOTION":"15.62227322","MEAN_ELEMENT_THEORY":"SGP4","DECAY_DATE":null,"REV_AT_EPOCH":"11798","MEAN_ANOMALY":"255.6524","COUNTRY_CODE":"US","TIME_SYSTEM":"UTC","MEAN_MOTION_DOT":"0.00148945","TLE_LINE1":"1 45552U 20025X   22151.85692708  .00148945  00000-0  16323-2 0  9994","LAUNCH_DATE":"2020-04-22","CLASSIFICATION_TYPE":"U","GP_ID":"205034215"},{"TLE_LINE1":"1 45553U 20025Y   22151.15811586  .00000805  00000-0  72958-4 0  9995","LAUNCH_DATE":"2020-04-22","GP_ID":"205026586","CLASSIFICATION_TYPE":"U","MEAN_MOTION_DOT":"0.00000805","TIME_SYSTEM":"UTC","COUNTRY_CODE":"US","DECAY_DATE":null,"MEAN_ELEMENT_THEORY":"SGP4","MEAN_MOTION":"15.06396523","REV_AT_EPOCH":"11630","MEAN_ANOMALY":"304.9796","OBJECT_ID":"2020-025Y","EPHEMERIS_TYPE":"0","OBJECT_TYPE":"PAYLOAD","OBJECT_NAME":"STARLINK-1323","MEAN_MOTION_DDOT":"0.0000000000000","SEMIMAJOR_AXIS":"6925.359","TLE_LINE2":"2 45553  53.0527 155.0798 0001831  55.1364 304.9796 15.06396523116307","ARG_OF_PERICENTER":"55.1364","RA_OF_ASC_NODE":"155.0798","APOAPSIS":"548.492","REF_FRAME":"TEME","INCLINATION":"53.0527","ELEMENT_SET_NO":"999","CENTER_NAME":"EARTH","NORAD_CAT_ID":"45553","SITE":"AFETR","RCS_SIZE":"LARGE","PERIOD":"95.592","EPOCH":"2022-05-31T03:47:41.210304","PERIAPSIS":"545.956","FILE":"3474118","BSTAR":"0.00007295800000","ECCENTRICITY":"0.00018310"}];
